[{"OBJECT_NAME":"CORVUS BC1","OBJECT_ID":"2017-042Y","EPOCH":"2026-03-09T22:24:00.973440","MEAN_MOTION":15.05817893,"ECCENTRICITY":0.00132832,"INCLINATION":97.3986,"RA_OF_ASC_NODE":234.9925,"ARG_OF_PERICENTER":71.1953,"MEAN_ANOMALY":289.0714,"EPHEMERIS_TYPE":0,"CLASSIFICATION_TYPE":"U","NORAD_CAT_ID":42847,"ELEMENT_SET_NO":999,"REV_AT_EPOCH":47215,"BSTAR":0.00033801202,"MEAN_MOTION_DOT":4.853e-5,"MEAN_MOTION_DDOT":0},{"OBJECT_NAME":"STARLINK-5658","OBJECT_ID":"2023-013H","EPOCH":"2026-03-09T01:45:35.531424","MEAN_MOTION":15.02534463,"ECCENTRICITY":0.00015027,"INCLINATION":43.0037,"RA_OF_ASC_NODE":303.9474,"ARG_OF_PERICENTER":260.8013,"MEAN_ANOMALY":99.2659,"EPHEMERIS_TYPE":0,"CLASSIFICATION_TYPE":"U","NORAD_CAT_ID":55338,"ELEMENT_SET_NO":999,"REV_AT_EPOCH":17161,"BSTAR":6.175238e-6,"MEAN_MOTION_DOT":-1.2e-6,"MEAN_MOTION_DDOT":0}]
